[{"OBJECT_NAME":"YAOGAN-30 10B","OBJECT_ID":"2021-055B","EPOCH":"2026-03-09T23:15:59.423328","MEAN_MOTION":15.02202929,"ECCENTRICITY":0.00050008,"INCLINATION":34.9962,"RA_OF_ASC_NODE":36.3507,"ARG_OF_PERICENTER":289.0618,"MEAN_ANOMALY":70.9548,"EPHEMERIS_TYPE":0,"CLASSIFICATION_TYPE":"U","NORAD_CAT_ID":48861,"ELEMENT_SET_NO":999,"REV_AT_EPOCH":25824,"BSTAR":0.00040429536,"MEAN_MOTION_DOT":5.411e-5,"MEAN_MOTION_DDOT":0},{"OBJECT_NAME":"STARLINK-4369","OBJECT_ID":"2022-084C","EPOCH":"2026-03-09T17:00:44.925120","MEAN_MOTION":15.01260154,"ECCENTRICITY":0.00024677,"INCLINATION":97.6029,"RA_OF_ASC_NODE":130.2336,"ARG_OF_PERICENTER":83.994,"MEAN_ANOMALY":276.1566,"EPHEMERIS_TYPE":0,"CLASSIFICATION_TYPE":"U","NORAD_CAT_ID":53191,"ELEMENT_SET_NO":999,"REV_AT_EPOCH":19931,"BSTAR":1.4264483e-5,"MEAN_MOTION_DOT":1.25e-6,"MEAN_MOTION_DDOT":0}]
